{
    "satellites": [
        {
           "CCSDS_OMM_VERS":"2.0",
           "COMMENT":"GENERATED VIA SPACE-TRACK.ORG API",
           "CREATION_DATE":"2022-10-06T23:16:11",
           "ORIGINATOR":"18 SPCS",
           "OBJECT_NAME":"FIREFLY ALPHA R\/B",
           "OBJECT_ID":"2022-122E",
           "CENTER_NAME":"EARTH",
           "REF_FRAME":"TEME",
           "TIME_SYSTEM":"UTC",
           "MEAN_ELEMENT_THEORY":"SGP4",
           "EPOCH":"2022-10-06T15:44:07.541376",
           "MEAN_MOTION":"16.34402039",
           "ECCENTRICITY":"0.00174320",
           "INCLINATION":"136.8757",
           "RA_OF_ASC_NODE":"162.7534",
           "ARG_OF_PERICENTER":"211.3135",
           "MEAN_ANOMALY":"199.2903",
           "EPHEMERIS_TYPE":"0",
           "CLASSIFICATION_TYPE":"U",
           "NORAD_CAT_ID":"53959",
           "ELEMENT_SET_NO":"999",
           "REV_AT_EPOCH":"80",
           "BSTAR":"0.00100780000000",
           "MEAN_MOTION_DOT":"0.08028869",
           "MEAN_MOTION_DDOT":"-0.0000037600000",
           "SEMIMAJOR_AXIS":"6558.873",
           "PERIOD":"88.106",
           "APOAPSIS":"192.172",
           "PERIAPSIS":"169.305",
           "OBJECT_TYPE":"ROCKET BODY",
           "RCS_SIZE":"LARGE",
           "COUNTRY_CODE":"US",
           "LAUNCH_DATE":"2022-10-01",
           "SITE":"AFWTR",
           "DECAY_DATE":"2022-10-07",
           "FILE":"3593972",
           "GP_ID":"214321071",
           "TLE_LINE0":"0 FIREFLY ALPHA R\/B",
           "TLE_LINE1":"1 53959U 22122E   22279.65564284  .08028869 -37600-5  10078-2 0  9993",
           "TLE_LINE2":"2 53959 136.8757 162.7534 0017432 211.3135 199.2903 16.34402039   804"
        },
        {
           "CCSDS_OMM_VERS":"2.0",
           "COMMENT":"GENERATED VIA SPACE-TRACK.ORG API",
           "CREATION_DATE":"2022-10-27T22:06:12",
           "ORIGINATOR":"18 SPCS",
           "OBJECT_NAME":"SL-4 R\/B",
           "OBJECT_ID":"2022-140B",
           "CENTER_NAME":"EARTH",
           "REF_FRAME":"TEME",
           "TIME_SYSTEM":"UTC",
           "MEAN_ELEMENT_THEORY":"SGP4",
           "EPOCH":"2022-10-27T14:56:56.793984",
           "MEAN_MOTION":"16.38147608",
           "ECCENTRICITY":"0.00124360",
           "INCLINATION":"51.6532",
           "RA_OF_ASC_NODE":"40.3983",
           "ARG_OF_PERICENTER":"72.6828",
           "MEAN_ANOMALY":"65.4354",
           "EPHEMERIS_TYPE":"0",
           "CLASSIFICATION_TYPE":"U",
           "NORAD_CAT_ID":"54156",
           "ELEMENT_SET_NO":"999",
           "REV_AT_EPOCH":"23",
           "BSTAR":"0.00059186000000",
           "MEAN_MOTION_DOT":"0.06775505",
           "MEAN_MOTION_DDOT":"0.0000124010000",
           "SEMIMAJOR_AXIS":"6548.872",
           "PERIOD":"87.904",
           "APOAPSIS":"178.881",
           "PERIAPSIS":"162.593",
           "OBJECT_TYPE":"ROCKET BODY",
           "RCS_SIZE":"LARGE",
           "COUNTRY_CODE":"CIS",
           "LAUNCH_DATE":"2022-10-26",
           "SITE":"TTMTR",
           "DECAY_DATE":"2022-10-28",
           "FILE":"3635775",
           "GP_ID":"216308267",
           "TLE_LINE0":"0 SL-4 R\/B",
           "TLE_LINE1":"1 54156U 22140B   22300.62287956  .06775505  12401-4  59186-3 0  9991",
           "TLE_LINE2":"2 54156  51.6532  40.3983 0012436  72.6828  65.4354 16.38147608   237"
        }
    ]
}